CSG-2                   
1 51444U 22008A   22049.48660062 -.00000174  00000+0 -14651-4 0  9993
2 51444  97.8752 234.8972 0001785  84.7920 275.3542 14.83837176  2596
STARLINK-3167           
1 51460U 22010E   22048.41667824 -.00880800  00000+0 -47415-2 0  9993
2 51460  53.2175 104.6981 0001158  60.8279 354.3195 15.81728009  3405
STARLINK-3181           
1 51461U 22010F   22049.58334491 -.00871710  00000+0 -55561-2 0  9995
2 51461  53.2174  98.9970 0001104  67.2023  80.2039 15.78039650  3659
STARLINK-3166           
1 51462U 22010G   22048.91667824 -.00877759  00000+0 -52879-2 0  9999
2 51462  53.2176 102.3191 0000985  84.2142 232.9047 15.79295247  2767
STARLINK-3419           
1 51463U 22010H   22048.50001157 -.00882654  00000+0 -47921-2 0  9998
2 51463  53.2178 104.2765 0001511  42.9284 129.2600 15.81547913  2702
STARLINK-3189           
1 51464U 22010J   22049.58334491 -.00871622  00000+0 -55527-2 0  9992
2 51464  53.2174  98.9928 0001103  69.0478  80.1464 15.78050717  3601
STARLINK-3401           
1 51465U 22010K   22049.58334491 -.00871469  00000+0 -55525-2 0  9990
2 51465  53.2174  98.9914 0001253  51.3066  98.5616 15.78045879  3650
STARLINK-3178           
1 51467U 22010M   22048.50001157 -.00880486  00000+0 -47804-2 0  9993
2 51467  53.2177 104.2750 0001348  53.6921 119.1712 15.81543676  3484
STARLINK-3174           
1 51468U 22010N   22048.50001157 -.00882708  00000+0 -47884-2 0  9991
2 51468  53.2178 104.2797 0001383  49.5900 121.0337 15.81567070  3486
STARLINK-3182           
1 51469U 22010P   22049.58334491 -.00870799  00000+0 -55488-2 0  9997
2 51469  53.2174  98.9940 0001083  74.2371  74.3897 15.78043364  3657
STARLINK-3165           
1 51471U 22010R   22044.41667824 -.00869411  25306-3 -18239-2 0  9998
2 51471  53.2172 124.3996 0007945 267.1673 195.3674 15.98177164  2041
STARLINK-3415           
1 51472U 22010S   22048.50001157 -.00884182  00000+0 -47980-2 0  9991
2 51472  53.2178 104.2782 0001550  39.3952 131.9534 15.81562066  2708
FALCON 9 DEB            
1 51473U 22010T   22046.38177699  .08304585  12261-4  27585-3 0  9998
2 51473  53.2038 113.3190 0015391 224.2750 135.7069 16.43126440  2679
FALCON 9 DEB            
1 51474U 22010U   22046.63668016  .06080672  12087-4  45752-3 0  9993
2 51474  53.1941 112.0563 0021098 208.7175 151.2713 16.38694128  2712
FALCON 9 DEB            
1 51476U 22010W   22046.25149440  .11768701  12386-4  16053-3 0  9994
2 51476  53.2017 113.9238 0014385 220.7781 139.2196 16.47959322  2650
LIGHT-1                 
1 51509U 98067TG  22049.46035076  .00020429  00000+0  35045-3 0  9994
2 51509  51.6488 204.4393 0009251 152.3248 207.8185 15.51116921  2387
GT-1                    
1 51510U 98067TH  22049.13511816  .00061158  00000+0  99756-3 0  9994
2 51510  51.6439 206.0217 0007637 155.1075 205.0172 15.51978794  2350
COSMOS 2553             
1 51511U 22011A   22048.88997277 -.00000089  00000+0 -14661-2 0  9990
2 51511  67.0898 209.9193 0003963 266.9260  93.1230 11.32883235  1430
ONEWEB-0410             
1 51622U 22012A   22049.58334491 -.00016846  00000+0 -56541-3 0  9997
2 51622  87.4003 358.9560 0015917 218.1140  34.8010 15.30938751  2477
ONEWEB-0411             
1 51623U 22012B   22049.58334491 -.00015842  00000+0 -57998-3 0  9990
2 51623  87.4025 358.9674 0013830 222.9336 312.2308 15.28138416  2469
ONEWEB-0415             
1 51624U 22012C   22049.50001157 -.00057810  00000+0 -21016-2 0  9995
2 51624  87.4020 358.9970 0015254 223.7144 221.2188 15.28467087  2455
ONEWEB-0416             
1 51625U 22012D   22048.91667824  .00019888  00000+0  67934-3 0  9990
2 51625  87.4022 359.1944 0012926 226.7010 294.2860 15.30109568  1793
ONEWEB-0422             
1 51626U 22012E   22049.16667824  .00044244  00000+0  14812-2 0  9999
2 51626  87.4016 359.1037 0015494 223.9956 247.8577 15.30660533  2414
ONEWEB-0423             
1 51627U 22012F   22049.50001157 -.00057747  00000+0 -19362-2 0  9998
2 51627  87.4032 358.9878 0016163 216.7722 300.4815 15.31080933  2465
ONEWEB-0425             
1 51628U 22012G   22049.16667824  .00045565  00000+0  15998-2 0  9994
2 51628  87.4017 359.1117 0015633 215.1606 215.7843 15.29106796  2410
ONEWEB-0428             
1 51629U 22012H   22049.16667824  .00044812  00000+0  16340-2 0  9991
2 51629  87.4027 359.1143 0013108 225.6358 174.1565 15.27904772  2402
ONEWEB-0431             
1 51630U 22012J   22049.16667824  .00045623  00000+0  16086-2 0  9991
2 51630  87.4039 359.1103 0015974 216.7984 210.6679 15.28963455  2419
ONEWEB-0434             
1 51631U 22012K   22049.50001157 -.00058852  00000+0 -20846-2 0  9990
2 51631  87.4031 358.9951 0014916 209.8795 259.2511 15.29325205  2463
ONEWEB-0435             
1 51632U 22012L   22049.16667824  .00045478  00000+0  16281-2 0  9998
2 51632  87.4051 359.1157 0015675 224.7635 189.7601 15.28470277  2409
ONEWEB-0436             
1 51633U 22012M   22049.16667824  .00042840  00000+0  13942-2 0  9990
2 51633  87.4027 359.1001 0014898 209.9310 286.2421 15.31586755  2420
ONEWEB-0438             
1 51634U 22012N   22049.16667824  .00045024  00000+0  15409-2 0  9998
2 51634  87.4048 359.1081 0012886 220.6197 233.3581 15.29979821  2416
ONEWEB-0439             
1 51635U 22012P   22049.16667824  .00045427  00000+0  15820-2 0  9993
2 51635  87.4010 359.1061 0014411 212.4836 226.0846 15.29391298  2418
ONEWEB-0442             
1 51636U 22012Q   22049.58334491 -.00016305  00000+0 -52999-3 0  9995
2 51636  87.4014 358.9514 0013015 205.1083  77.7862 15.32014401  2483
ONEWEB-0443             
1 51637U 22012R   22049.58334491 -.00016580  00000+0 -54675-3 0  9994
2 51637  87.4019 358.9571 0015273 209.2165  59.7285 15.31517445  2480
ONEWEB-0444             
1 51638U 22012S   22049.16667824  .00044797  00000+0  15216-2 0  9994
2 51638  87.4029 359.1090 0013437 225.7581 234.4608 15.30218756  2412
ONEWEB-0445             
1 51639U 22012T   22049.16667824  .00045275  00000+0  15657-2 0  9996
2 51639  87.4022 359.1074 0013413 213.6658 231.2808 15.29633428  2415
ONEWEB-0446             
1 51640U 22012U   22049.58334491 -.00076792  00000+0 -26580-2 0  9992
2 51640  87.4022 358.9616 0012564 220.2331  10.4496 15.30179415  2473
ONEWEB-0448             
1 51641U 22012V   22049.25001157  .00074830  00000+0  26493-2 0  9999
2 51641  87.4036 359.0840 0016173 221.0875 298.2377 15.28712676  2419
ONEWEB-0449             
1 51642U 22012W   22049.16667824  .00096444  00000+0  33933-2 0  9991
2 51642  87.4024 359.1120 0016308 218.4731 205.8716 15.28826413  2416
ONEWEB-0451             
1 51643U 22012X   22049.16667824  .00043387  00000+0  14272-2 0  9995
2 51643  87.4022 359.1023 0015894 214.5663 272.0979 15.31224600  2429
ONEWEB-0452             
1 51644U 22012Y   22049.16667824  .00042288  00000+0  13557-2 0  9990
2 51644  87.4044 359.1022 0012451 208.3193 301.5743 15.32104252  2426
ONEWEB-0455             
1 51645U 22012Z   22049.16667824  .00045293  00000+0  16321-2 0  9992
2 51645  87.4028 359.1145 0014680 226.6947 182.6646 15.28271607  2403
ONEWEB-0456             
1 51646U 22012AA  22049.58334491 -.00017065  00000+0 -58322-3 0  9996
2 51646  87.4022 358.9584 0013990 223.4617  14.0130 15.30381868  2471
ONEWEB-0457             
1 51647U 22012AB  22049.58334491 -.00017130  00000+0 -59483-3 0  9999
2 51647  87.4009 358.9621 0012807 215.5603   8.0568 15.29881033  2477
ONEWEB-0458             
1 51648U 22012AC  22049.25001157  .00075105  00000+0  26206-2 0  9994
2 51648  87.4031 359.0808 0014791 211.7648 320.3846 15.29207954  2421
ONEWEB-0461             
1 51649U 22012AD  22049.58334491  .00023292  00000+0  78600-3 0  9997
2 51649  87.4028 358.9616 0014541 223.4322  17.2780 15.30478013  2477
ONEWEB-0463             
1 51650U 22012AE  22049.16667824  .00043222  00000+0  14165-2 0  9992
2 51650  87.4034 359.1002 0015531 213.0893 276.9029 15.31350798  2421
ONEWEB-0464             
1 51651U 22012AF  22049.58334491 -.00017112  00000+0 -59620-3 0  9997
2 51651  87.4025 358.9622 0012792 213.3474   7.2460 15.29772644  2475
ONEWEB-0468             
1 51652U 22012AG  22049.16667824  .00045569  00000+0  16244-2 0  9990
2 51652  87.4007 359.1100 0015958 223.0275 194.9640 15.28605577  2400
ONEWEB-0473             
1 51653U 22012AH  22049.16667824  .00045394  00000+0  15757-2 0  9995
2 51653  87.4043 359.1122 0013922 213.0362 228.5371 15.29504174  2418
ONEWEB-0474             
1 51654U 22012AJ  22049.16667824  .00045043  00000+0  16356-2 0  9993
2 51654  87.4030 359.1171 0013484 227.8624 175.5838 15.28036020  2403
ONEWEB-0475             
1 51655U 22012AK  22049.25001157  .00074598  00000+0  24789-2 0  9991
2 51655  87.4047 359.0771 0015684 221.6774 352.4200 15.30783220  2424
EOS-4                   
1 51656U 22013A   22049.51970325  .00001844  00000+0  10907-3 0  9996
2 51656  97.5515  58.5815 0010834 231.8570 279.9872 15.12679937   678
INSPIRESAT-1            
1 51657U 22013B   22048.96174446  .00002552  00000+0  14815-3 0  9994
2 51657  97.5575  58.0387 0010116 240.0911 119.9321 15.13012911   595
INS-2TD                 
1 51658U 22013C   22049.22584428  .00004114  00000+0  23540-3 0  9991
2 51658  97.5576  58.3020 0009473 242.5842 117.4414 15.13179792   630
PSLV R/B                
1 51659U 22013D   22049.08713916  .00003684  00000+0  19536-3 0  9993
2 51659  97.5722  58.2238 0032629 325.3118  34.5969 15.15558171   615
PROGRESS-MS 19          
1 51660U 22014A   22048.52286575  .00007376  00000+0  13797-3 0  9995
2 51660  51.6418 209.1946 0005658 138.7654 332.3801 15.49813473326628
SL-4 R/B                
1 51661U 22014B   22048.68502543  .31938874  12753-4  17855-3 0  9991
2 51661  51.6559 207.5721 0005279 126.7735 233.8133 16.54398252   413
